HYPERFIELD-1A           
1 60562U 24149CY  26068.76488211  .00008569  00000+0  30052-3 0  9998
2 60562  97.3842 149.5066 0003865 313.7844  46.3076 15.29681349 86836
STARLINK-32631          
1 62235U 24231T   26068.64322103  .00038240  00000+0  12968-2 0  9997
2 62235  53.1611 206.8965 0001280  84.9118 275.2028 15.30195965 71935
